{
  "norad_id": 59212,
  "name": "STARLINK-31492",
  "history": [
    {
      "epoch": "2026-03-28T22:43:23.359296Z",
      "apogee_km": 476.1541362190692,
      "perigee_km": 474.28933730679455,
      "latitude_deg": 2.8840440188427767e-05,
      "longitude_deg": -101.01775168903222,
      "height_km": 476.11702015138115,
      "semi_major_axis_km": 6853.358736762932,
      "eccentricity": 0.00013605,
      "inclination_deg": 53.1617,
      "raan_deg": 66.1895,
      "arg_perigee_deg": 89.8252,
      "mean_anomaly_deg": 270.2905,
      "mean_motion_rev_day": 15.30197767
    },
    {
      "epoch": "2026-03-29T04:59:36.260448Z",
      "apogee_km": 476.11286899892275,
      "perigee_km": 474.3378481480522,
      "latitude_deg": -5.3957616540299044e-05,
      "longitude_deg": 163.4523218803145,
      "height_km": 476.05522414987126,
      "semi_major_axis_km": 6853.362358573488,
      "eccentricity": 0.0001295,
      "inclination_deg": 53.161,
      "raan_deg": 64.9709,
      "arg_perigee_deg": 85.5866,
      "mean_anomaly_deg": 274.5282,
      "mean_motion_rev_day": 15.30196554
    },
    {
      "epoch": "2026-03-30T04:30:24.936768Z",
      "apogee_km": 476.23927208522855,
      "perigee_km": 474.31483341921466,
      "latitude_deg": -2.0827186294979433e-06,
      "longitude_deg": 165.2338771451238,
      "height_km": 476.0937602196413,
      "semi_major_axis_km": 6853.414052752221,
      "eccentricity": 0.0001404,
      "inclination_deg": 53.162,
      "raan_deg": 60.4209,
      "arg_perigee_deg": 85.1473,
      "mean_anomaly_deg": 274.9688,
      "mean_motion_rev_day": 15.30179241
    },
    {
      "epoch": "2026-03-30T07:38:31.254720Z",
      "apogee_km": 476.25021280070996,
      "perigee_km": 474.29493504926904,
      "latitude_deg": -3.621539381231628e-05,
      "longitude_deg": 117.4721735653301,
      "height_km": 476.0785039349784,
      "semi_major_axis_km": 6853.40957392499,
      "eccentricity": 0.00014265,
      "inclination_deg": 53.1619,
      "raan_deg": 59.8143,
      "arg_perigee_deg": 84.5919,
      "mean_anomaly_deg": 275.5244,
      "mean_motion_rev_day": 15.30180741
    },
    {
      "epoch": "2026-03-30T15:28:47.214624Z",
      "apogee_km": 476.2571927393192,
      "perigee_km": 474.2810816137253,
      "latitude_deg": -5.9437677183765415e-06,
      "longitude_deg": -1.9320887432390852,
      "height_km": 476.0668716434379,
      "semi_major_axis_km": 6853.406137176522,
      "eccentricity": 0.00014417,
      "inclination_deg": 53.1628,
      "raan_deg": 58.2984,
      "arg_perigee_deg": 84.1673,
      "mean_anomaly_deg": 275.9492,
      "mean_motion_rev_day": 15.30181892
    },
    {
      "epoch": "2026-03-31T14:59:34.613952Z",
      "apogee_km": 476.24921959712356,
      "perigee_km": 474.205546338123,
      "latitude_deg": 4.506003905346e-05,
      "longitude_deg": -0.14569809202477257,
      "height_km": 476.08443034194266,
      "semi_major_axis_km": 6853.364382967623,
      "eccentricity": 0.0001491,
      "inclination_deg": 53.161,
      "raan_deg": 53.7479,
      "arg_perigee_deg": 87.7104,
      "mean_anomaly_deg": 272.4068,
      "mean_motion_rev_day": 15.30195876
    },
    {
      "epoch": "2026-04-01T14:30:22.809024Z",
      "apogee_km": 476.2353728089756,
      "perigee_km": 474.2492634825767,
      "latitude_deg": 3.3555447385479466e-05,
      "longitude_deg": 1.6364212961983358,
      "height_km": 476.1904607050026,
      "semi_major_axis_km": 6853.379318145776,
      "eccentricity": 0.0001449,
      "inclination_deg": 53.1617,
      "raan_deg": 49.1965,
      "arg_perigee_deg": 92.8941,
      "mean_anomaly_deg": 267.2226,
      "mean_motion_rev_day": 15.30190874
    },
    {
      "epoch": "2026-04-02T14:01:10.704288Z",
      "apogee_km": 476.3077581742873,
      "perigee_km": 474.14332921573805,
      "latitude_deg": -3.8548042364264885e-05,
      "longitude_deg": 3.4213477832116657,
      "height_km": 476.0721647644099,
      "semi_major_axis_km": 6853.362543695012,
      "eccentricity": 0.00015791,
      "inclination_deg": 53.1619,
      "raan_deg": 44.6467,
      "arg_perigee_deg": 87.2864,
      "mean_anomaly_deg": 272.8317,
      "mean_motion_rev_day": 15.30196492
    },
    {
      "epoch": "2026-04-03T19:48:12.347424Z",
      "apogee_km": 476.43700746290233,
      "perigee_km": 474.12466428507923,
      "latitude_deg": 2.6836389220827418e-05,
      "longitude_deg": -90.32422645942496,
      "height_km": 476.107430505349,
      "semi_major_axis_km": 6853.417835873991,
      "eccentricity": 0.0001687,
      "inclination_deg": 53.1619,
      "raan_deg": 38.8811,
      "arg_perigee_deg": 86.4746,
      "mean_anomaly_deg": 273.6448,
      "mean_motion_rev_day": 15.30177974
    },
    {
      "epoch": "2026-04-04T13:02:46.473216Z",
      "apogee_km": 476.185621963059,
      "perigee_km": 474.2324183473147,
      "latitude_deg": 3.697453356337289e-05,
      "longitude_deg": 6.987052606936059,
      "height_km": 475.97625800011514,
      "semi_major_axis_km": 6853.346020155187,
      "eccentricity": 0.0001425,
      "inclination_deg": 53.1627,
      "raan_deg": 35.5427,
      "arg_perigee_deg": 82.2954,
      "mean_anomaly_deg": 277.8209,
      "mean_motion_rev_day": 15.30202026
    },
    {
      "epoch": "2026-04-05T06:17:22.732224Z",
      "apogee_km": 475.9837589680783,
      "perigee_km": 474.60347804151115,
      "latitude_deg": -3.085767962305519e-05,
      "longitude_deg": 104.29306047844969,
      "height_km": 476.36753950540043,
      "semi_major_axis_km": 6853.430618504794,
      "eccentricity": 0.0001007,
      "inclination_deg": 53.1615,
      "raan_deg": 32.208,
      "arg_perigee_deg": 104.7142,
      "mean_anomaly_deg": 255.397,
      "mean_motion_rev_day": 15.30173693
    },
    {
      "epoch": "2026-04-06T04:14:07.239552Z",
      "apogee_km": 476.27763530950506,
      "perigee_km": 474.1835203124292,
      "latitude_deg": 4.679785093977076e-05,
      "longitude_deg": 129.9621916439063,
      "height_km": 475.6397476045426,
      "semi_major_axis_km": 6853.367577810966,
      "eccentricity": 0.00015278,
      "inclination_deg": 53.1611,
      "raan_deg": 27.9638,
      "arg_perigee_deg": 62.1642,
      "mean_anomaly_deg": 297.9514,
      "mean_motion_rev_day": 15.30194806
    },
    {
      "epoch": "2026-04-07T05:18:57.816000Z",
      "apogee_km": 475.92043511271913,
      "perigee_km": 474.49658404964975,
      "latitude_deg": -6.342575906039535e-05,
      "longitude_deg": 107.86674323887995,
      "height_km": 476.2370992584242,
      "semi_major_axis_km": 6853.345509581184,
      "eccentricity": 0.00010388,
      "inclination_deg": 53.1601,
      "raan_deg": 23.1092,
      "arg_perigee_deg": 100.5345,
      "mean_anomaly_deg": 259.5772,
      "mean_motion_rev_day": 15.30202197
    },
    {
      "epoch": "2026-04-08T01:41:39.630048Z",
      "apogee_km": 476.0717985028605,
      "perigee_km": 474.39724570514954,
      "latitude_deg": 2.7590962979224765e-05,
      "longitude_deg": 157.41027705843953,
      "height_km": 476.1086210179406,
      "semi_major_axis_km": 6853.371522104005,
      "eccentricity": 0.00012217,
      "inclination_deg": 53.1606,
      "raan_deg": 19.1638,
      "arg_perigee_deg": 88.3505,
      "mean_anomaly_deg": 271.7636,
      "mean_motion_rev_day": 15.30193485
    },
    {
      "epoch": "2026-04-09T04:20:33.865728Z",
      "apogee_km": 476.04539481907705,
      "perigee_km": 474.42059786034497,
      "latitude_deg": 2.6867315255681354e-05,
      "longitude_deg": 111.43148027243974,
      "height_km": 475.93932515958676,
      "semi_major_axis_km": 6853.369996339711,
      "eccentricity": 0.00011854,
      "inclination_deg": 53.1607,
      "raan_deg": 14.0054,
      "arg_perigee_deg": 76.331,
      "mean_anomaly_deg": 283.7823,
      "mean_motion_rev_day": 15.30193996
    }
  ]
}